{
  "type": "FeatureCollection",
  "features": [
    {
      "type": "Feature",
      "properties": {
        "norad_id": 57400,
        "name": "TIANMU-1 08",
        "group": "weather",
        "lat": 6.60539316989637,
        "lon": -133.23834661459753,
        "alt_km": 485.66119410416286,
        "timestamp": "2025-12-22T11:33:20.072242+00:00",
        "meta_object_name": "TIANMU-1 08",
        "meta_object_id": "2023-101B",
        "meta_epoch": "2025-12-22T04:30:52.394688",
        "meta_mean_motion": 15.28180225,
        "meta_eccentricity": 0.0007143,
        "meta_inclination": 97.2849,
        "meta_ra_of_asc_node": 45.626,
        "meta_arg_of_pericenter": 57.2914,
        "meta_mean_anomaly": 302.9014,
        "meta_ephemeris_type": 0,
        "meta_classification_type": "U",
        "meta_norad_cat_id": 57400,
        "meta_element_set_no": 999,
        "meta_rev_at_epoch": 13459,
        "meta_bstar": 0.00027336,
        "meta_mean_motion_dot": 7.441e-05,
        "meta_mean_motion_ddot": 0,
        "tle_line1": "1 57400U 23101B   25356.18810642  .00007441  00000+0  27336-3 0  9993",
        "tle_line2": "2 57400  97.2849  45.6260 0007143  57.2914 302.9014 15.28180225134598"
      },
      "geometry": {
        "type": "Point",
        "coordinates": [
          -133.23834661459753,
          6.60539316989637
        ]
      }
    },
    {
      "type": "Feature",
      "properties": {
        "norad_id": 57401,
        "name": "TIANMU-1 09",
        "group": "weather",
        "lat": -65.8779799120342,
        "lon": -151.16849880604343,
        "alt_km": 492.7400504482839,
        "timestamp": "2025-12-22T11:33:20.072258+00:00",
        "meta_object_name": "TIANMU-1 09",
        "meta_object_id": "2023-101C",
        "meta_epoch": "2025-12-22T04:11:33.805248",
        "meta_mean_motion": 15.28213348,
        "meta_eccentricity": 0.0006416,
        "meta_inclination": 97.2806,
        "meta_ra_of_asc_node": 45.1213,
        "meta_arg_of_pericenter": 58.0107,
        "meta_mean_anomaly": 302.1756,
        "meta_ephemeris_type": 0,
        "meta_classification_type": "U",
        "meta_norad_cat_id": 57401,
        "meta_element_set_no": 999,
        "meta_rev_at_epoch": 13459,
        "meta_bstar": 0.00029783,
        "meta_mean_motion_dot": 8.121e-05,
        "meta_mean_motion_ddot": 0,
        "tle_line1": "1 57401U 23101C   25356.17469682  .00008121  00000+0  29783-3 0  9991",
        "tle_line2": "2 57401  97.2806  45.1213 0006416  58.0107 302.1756 15.28213348134598"
      },
      "geometry": {
        "type": "Point",
        "coordinates": [
          -151.16849880604343,
          -65.8779799120342
        ]
      }
    },
    {
      "type": "Feature",
      "properties": {
        "norad_id": 57402,
        "name": "TIANMU-1 10",
        "group": "weather",
        "lat": 57.72992650915304,
        "lon": 34.586915284091944,
        "alt_km": 470.07787466129776,
        "timestamp": "2025-12-22T11:33:20.072278+00:00",
        "meta_object_name": "TIANMU-1 10",
        "meta_object_id": "2023-101D",
        "meta_epoch": "2025-12-22T03:26:36.767904",
        "meta_mean_motion": 15.28204776,
        "meta_eccentricity": 0.0008138,
        "meta_inclination": 97.2885,
        "meta_ra_of_asc_node": 45.9507,
        "meta_arg_of_pericenter": 56.0596,
        "meta_mean_anomaly": 304.1416,
        "meta_ephemeris_type": 0,
        "meta_classification_type": "U",
        "meta_norad_cat_id": 57402,
        "meta_element_set_no": 999,
        "meta_rev_at_epoch": 13458,
        "meta_bstar": 0.00030032,
        "meta_mean_motion_dot": 8.19e-05,
        "meta_mean_motion_ddot": 0,
        "tle_line1": "1 57402U 23101D   25356.14348111  .00008190  00000+0  30032-3 0  9997",
        "tle_line2": "2 57402  97.2885  45.9507 0008138  56.0596 304.1416 15.28204776134582"
      },
      "geometry": {
        "type": "Point",
        "coordinates": [
          34.586915284091944,
          57.72992650915304
        ]
      }
    },
    {
      "type": "Feature",
      "properties": {
        "norad_id": 57490,
        "name": "FENGYUN 3F",
        "group": "weather",
        "lat": 50.7912880915465,
        "lon": -104.55614427871497,
        "alt_km": 820.4456625953799,
        "timestamp": "2025-12-22T11:33:20.072315+00:00",
        "meta_object_name": "FENGYUN 3F",
        "meta_object_id": "2023-111A",
        "meta_epoch": "2025-12-22T04:11:18.630816",
        "meta_mean_motion": 14.19895952,
        "meta_eccentricity": 7.8e-05,
        "meta_inclination": 98.7071,
        "meta_ra_of_asc_node": 64.3152,
        "meta_arg_of_pericenter": 114.7563,
        "meta_mean_anomaly": 245.3695,
        "meta_ephemeris_type": 0,
        "meta_classification_type": "U",
        "meta_norad_cat_id": 57490,
        "meta_element_set_no": 999,
        "meta_rev_at_epoch": 12374,
        "meta_bstar": 5.724e-05,
        "meta_mean_motion_dot": 7.8e-07,
        "meta_mean_motion_ddot": 0,
        "tle_line1": "1 57490U 23111A   25356.17452119  .00000078  00000+0  57240-4 0  9990",
        "tle_line2": "2 57490  98.7071  64.3152 0000780 114.7563 245.3695 14.19895952123746"
      },
      "geometry": {
        "type": "Point",
        "coordinates": [
          -104.55614427871497,
          50.7912880915465
        ]
      }
    },
    {
      "type": "Feature",
      "properties": {
        "norad_id": 58584,
        "name": "ARKTIKA-M 2",
        "group": "weather",
        "lat": 61.63568180380033,
        "lon": -116.83962045730408,
        "alt_km": 37529.395084642994,
        "timestamp": "2025-12-22T11:33:20.072339+00:00",
        "meta_object_name": "ARKTIKA-M 2",
        "meta_object_id": "2023-198A",
        "meta_epoch": "2025-12-20T07:20:06.590112",
        "meta_mean_motion": 2.00602824,
        "meta_eccentricity": 0.68654675,
        "meta_inclination": 63.225,
        "meta_ra_of_asc_node": 174.0676,
        "meta_arg_of_pericenter": 268.0739,
        "meta_mean_anomaly": 18.8406,
        "meta_ephemeris_type": 0,
        "meta_classification_type": "U",
        "meta_norad_cat_id": 58584,
        "meta_element_set_no": 999,
        "meta_rev_at_epoch": 1473,
        "meta_bstar": 0,
        "meta_mean_motion_dot": 2.01e-06,
        "meta_mean_motion_ddot": 0,
        "tle_line1": "1 58584U 23198A   25354.30563183  .00000201  00000+0  00000+0 0  9992",
        "tle_line2": "2 58584  63.2250 174.0676 6865467 268.0739  18.8406  2.00602824 14734"
      },
      "geometry": {
        "type": "Point",
        "coordinates": [
          -116.83962045730408,
          61.63568180380033
        ]
      }
    },
    {
      "type": "Feature",
      "properties": {
        "norad_id": 58645,
        "name": "TIANMU-1 11",
        "group": "weather",
        "lat": 63.460505134412664,
        "lon": -149.06872745886176,
        "alt_km": 490.1226488389075,
        "timestamp": "2025-12-22T11:33:20.072359+00:00",
        "meta_object_name": "TIANMU-1 11",
        "meta_object_id": "2023-205A",
        "meta_epoch": "2025-12-22T04:44:59.321184",
        "meta_mean_motion": 15.24706898,
        "meta_eccentricity": 0.0007526,
        "meta_inclination": 97.3593,
        "meta_ra_of_asc_node": 15.655,
        "meta_arg_of_pericenter": 269.9462,
        "meta_mean_anomaly": 90.0914,
        "meta_ephemeris_type": 0,
        "meta_classification_type": "U",
        "meta_norad_cat_id": 58645,
        "meta_element_set_no": 999,
        "meta_rev_at_epoch": 11053,
        "meta_bstar": 0.00026715,
        "meta_mean_motion_dot": 6.542e-05,
        "meta_mean_motion_ddot": 0,
        "tle_line1": "1 58645U 23205A   25356.19790881  .00006542  00000+0  26715-3 0  9994",
        "tle_line2": "2 58645  97.3593  15.6550 0007526 269.9462  90.0914 15.24706898110539"
      },
      "geometry": {
        "type": "Point",
        "coordinates": [
          -149.06872745886176,
          63.460505134412664
        ]
      }
    },
    {
      "type": "Feature",
      "properties": {
        "norad_id": 58646,
        "name": "TIANMU-1 12",
        "group": "weather",
        "lat": -35.976943183272525,
        "lon": 21.11843239838077,
        "alt_km": 497.4518248153063,
        "timestamp": "2025-12-22T11:33:20.072376+00:00",
        "meta_object_name": "TIANMU-1 12",
        "meta_object_id": "2023-205B",
        "meta_epoch": "2025-12-22T05:24:49.678272",
        "meta_mean_motion": 15.24592885,
        "meta_eccentricity": 0.0005845,
        "meta_inclination": 97.3581,
        "meta_ra_of_asc_node": 15.4844,
        "meta_arg_of_pericenter": 248.1231,
        "meta_mean_anomaly": 111.9385,
        "meta_ephemeris_type": 0,
        "meta_classification_type": "U",
        "meta_norad_cat_id": 58646,
        "meta_element_set_no": 999,
        "meta_rev_at_epoch": 11052,
        "meta_bstar": 0.00027234,
        "meta_mean_motion_dot": 6.646e-05,
        "meta_mean_motion_ddot": 0,
        "tle_line1": "1 58646U 23205B   25356.22557498  .00006646  00000+0  27234-3 0  9996",
        "tle_line2": "2 58646  97.3581  15.4844 0005845 248.1231 111.9385 15.24592885110529"
      },
      "geometry": {
        "type": "Point",
        "coordinates": [
          21.11843239838077,
          -35.976943183272525
        ]
      }
    }
  ]
}